OBJECT_NAME,OBJECT_ID,EPOCH,MEAN_MOTION,ECCENTRICITY,INCLINATION,RA_OF_ASC_NODE,ARG_OF_PERICENTER,MEAN_ANOMALY,EPHEMERIS_TYPE,CLASSIFICATION_TYPE,NORAD_CAT_ID,ELEMENT_SET_NO,REV_AT_EPOCH,BSTAR,MEAN_MOTION_DOT,MEAN_MOTION_DDOT
ORBCOMM FM06,1997-084G,2026-07-21T10:22:49.715040,14.47635106,.00018652,45.0126,247.8448,252.1141,122.4170,0,U,25118,999,49935,.19789379E-3,.591E-5,0
ORBCOMM FM04,1998-007C,2026-07-21T12:49:02.525664,14.35791531,.00420314,107.9632,240.1135,266.1480,93.4854,0,U,25159,999,48152,.20870227E-3,.477E-5,0
ORBCOMM FM19,1998-046C,2026-07-21T15:14:20.442048,14.39549967,.00032819,44.9940,79.8100,105.1931,275.6377,0,U,25415,999,46174,.24520013E-3,.629E-5,0
ORBCOMM FM20,1998-046D,2026-07-21T09:36:26.710560,14.38106485,.00009302,44.9942,89.2269,43.8049,316.2873,0,U,25416,999,46171,.19343766E-3,.449E-5,0
ORBCOMM FM27,1998-053G,2026-07-21T08:10:39.721728,14.39192165,.00021262,45.0036,173.1269,313.6498,46.4175,0,U,25481,999,45515,.22048403E-3,.547E-5,0
ORBCOMM FM32,1999-065C,2026-07-21T05:07:31.724832,14.37173300,.00062038,45.0165,12.1737,220.5400,139.4987,0,U,25982,999,39198,.16712712E-3,.36E-5,0
ORBCOMM FM109,2014-040A,2026-07-21T13:07:52.678272,14.58874474,.00011217,47.0029,289.0324,343.3049,16.7800,0,U,40086,999,63936,.53545989E-4,.82E-6,0
ORBCOMM FM110,2015-081D,2026-07-21T09:57:15.163776,14.58924929,.00037835,47.0001,199.5989,246.7242,113.3245,0,U,41182,999,56262,.13754052E-3,.48E-5,0
ORBCOMM FM118,2015-081E,2026-07-21T00:55:12.924192,14.58909261,.00031511,47.0024,201.7190,211.5269,148.5428,0,U,41183,999,56267,.13037579E-3,.445E-5,0
ORBCOMM FM112,2015-081F,2026-07-21T10:52:28.583904,14.58944878,.00033063,46.9989,108.2060,356.1147,3.9713,0,U,41184,999,56395,.12904903E-3,.44E-5,0
ORBCOMM FM113,2015-081G,2026-07-21T03:46:05.633760,14.58886089,.0001894,47.0006,110.0008,345.4787,14.6045,0,U,41185,999,56389,.84079083E-4,.226E-5,0
ORBCOMM FM108,2015-081J,2026-07-21T12:42:54.294912,14.58916485,.00022462,47.0059,19.8197,347.1924,12.8904,0,U,41187,999,56509,.1216713E-3,.404E-5,0
ORBCOMM FM117,2015-081K,2026-07-21T13:32:15.629856,14.58903429,.00026263,47.0022,18.2832,355.6874,4.3989,0,U,41188,999,56514,.11699521E-3,.382E-5,0
ORBCOMM FM116,2015-081L,2026-07-21T03:11:53.723616,14.58911587,.00017359,47.0021,110.1098,245.9609,114.1095,0,U,41189,999,56389,.10610014E-3,.331E-5,0
